[
    {
        "Altitude(m)": 604221.2066411981,
        "Argument of Periapsis(deg)": 0.0,
        "Eccentricity": 0.0,
        "Inclination(deg)": 60.0,
        "Latitude(deg)": 14.117259050141525,
        "Longitude(deg)": -161.6658252966552,
        "Mean Anomaly(deg)": 16.363599999999984,
        "RAAN(deg)": 290.0,
        "Satellite Name": "Test1 1277",
        "Satellite Number": 1277,
        "Semi-Major Axis(m)": 6980739.136638005,
        "Time(s)": 0
    },
    {
        "Altitude(m)": 604235.3475572224,
        "Argument of Periapsis(deg)": 0.00010418945913296404,
        "Eccentricity": 0.0,
        "Inclination(deg)": 60.0,
        "Latitude(deg)": 14.651655389830253,
        "Longitude(deg)": -161.37737750936694,
        "Mean Anomaly(deg)": 16.983706145461838,
        "RAAN(deg)": 289.99957995086027,
        "Satellite Name": "Test1 1277",
        "Satellite Number": 1277,
        "Semi-Major Axis(m)": 6980739.136638005,
        "Time(s)": 10
    }
]